start=new Date('2021-08-29T00:00:00.000Z').valueOf();
sats=[{"MEAN_MOTION_DOT":"0.00334336","ELEMENT_SET_NO":"999","FILE":"3104555","RCS_SIZE":"LARGE","PERIOD":"94.889","TLE_LINE2":"2 45216  53.0540 250.7153 0000820  12.3881 347.7133 15.17559820 85692","MEAN_ANOMALY":"347.7133","NORAD_CAT_ID":"45216","ARG_OF_PERICENTER":"12.3881","LAUNCH_DATE":"2020-02-17","DECAY_DATE":null,"APOAPSIS":"513.785","EPHEMERIS_TYPE":"0","TIME_SYSTEM":"UTC","EPOCH":"2021-08-28T20:22:12.225504","MEAN_MOTION":"15.17559820","MEAN_MOTION_DDOT":"0.0000000000000","ECCENTRICITY":"0.00008200","BSTAR":"0.01571800000000","GP_ID":"183635867","CLASSIFICATION_TYPE":"U","OBJECT_NAME":"STARLINK-1254","REV_AT_EPOCH":"8569","CENTER_NAME":"EARTH","SEMIMAJOR_AXIS":"6891.355","COUNTRY_CODE":"US","RA_OF_ASC_NODE":"250.7153","REF_FRAME":"TEME","MEAN_ELEMENT_THEORY":"SGP4","OBJECT_ID":"2020-012AQ","INCLINATION":"53.0540","SITE":"AFETR","TLE_LINE1":"1 45216U 20012AQ  21240.84875261  .00334336  00000-0  15718-1 0  9998","PERIAPSIS":"512.655","OBJECT_TYPE":"PAYLOAD"},{"MEAN_ELEMENT_THEORY":"SGP4","OBJECT_ID":"2020-012AR","REF_FRAME":"TEME","OBJECT_TYPE":"PAYLOAD","INCLINATION":"53.0536","PERIAPSIS":"546.687","TLE_LINE1":"1 45217U 20012AR  21240.75763499  .00001614  00000-0  12715-3 0  9994","SITE":"AFETR","OBJECT_NAME":"STARLINK-1271","REV_AT_EPOCH":"8583","CENTER_NAME":"EARTH","GP_ID":"183636615","CLASSIFICATION_TYPE":"U","RA_OF_ASC_NODE":"251.4116","COUNTRY_CODE":"US","SEMIMAJOR_AXIS":"6925.310","ARG_OF_PERICENTER":"67.3841","LAUNCH_DATE":"2020-02-17","NORAD_CAT_ID":"45217","MEAN_MOTION_DDOT":"0.0000000000000","ECCENTRICITY":"0.00007050","BSTAR":"0.00012715000000","APOAPSIS":"547.664","TIME_SYSTEM":"UTC","EPHEMERIS_TYPE":"0","DECAY_DATE":null,"MEAN_MOTION":"15.06412490","EPOCH":"2021-08-28T18:10:59.663136","FILE":"3104555","PERIOD":"95.591","RCS_SIZE":"LARGE","MEAN_MOTION_DOT":"0.00001614","ELEMENT_SET_NO":"999","MEAN_ANOMALY":"292.7222","TLE_LINE2":"2 45217  53.0536 251.4116 0000705  67.3841 292.7222 15.06412490 85836"},{"LAUNCH_DATE":"2020-02-17","ARG_OF_PERICENTER":"47.7189","NORAD_CAT_ID":"45219","BSTAR":"0.00013553000000","ECCENTRICITY":"0.00009840","MEAN_MOTION_DDOT":"0.0000000000000","MEAN_MOTION":"15.06405524","EPOCH":"2021-08-28T16:32:49.461504","APOAPSIS":"547.878","TIME_SYSTEM":"UTC","EPHEMERIS_TYPE":"0","DECAY_DATE":null,"RCS_SIZE":"LARGE","PERIOD":"95.592","FILE":"3104555","ELEMENT_SET_NO":"999","MEAN_MOTION_DOT":"0.00001738","MEAN_ANOMALY":"312.3883","TLE_LINE2":"2 45219  53.0534 231.7176 0000984  47.7189 312.3883 15.06405524 86113","OBJECT_ID":"2020-012AT","MEAN_ELEMENT_THEORY":"SGP4","REF_FRAME":"TEME","OBJECT_TYPE":"PAYLOAD","PERIAPSIS":"546.515","TLE_LINE1":"1 45219U 20012AT  21240.68946136  .00001738  00000-0  13553-3 0  9997","SITE":"AFETR","INCLINATION":"53.0534","CENTER_NAME":"EARTH","REV_AT_EPOCH":"8611","OBJECT_NAME":"STARLINK-1187","GP_ID":"183637364","CLASSIFICATION_TYPE":"U","RA_OF_ASC_NODE":"231.7176","COUNTRY_CODE":"US","SEMIMAJOR_AXIS":"6925.332"},{"OBJECT_TYPE":"PAYLOAD","PERIAPSIS":"444.014","SITE":"AFETR","TLE_LINE1":"1 45220U 20012AU  21240.84706275  .00596633  00000-0  13619-1 0  9999","INCLINATION":"53.0523","OBJECT_ID":"2020-012AU","MEAN_ELEMENT_THEORY":"SGP4","REF_FRAME":"TEME","RA_OF_ASC_NODE":"229.0816","SEMIMAJOR_AXIS":"6823.162","COUNTRY_CODE":"US","OBJECT_NAME":"STARLINK-1188","REV_AT_EPOCH":"8604","CENTER_NAME":"EARTH","GP_ID":"183635617","CLASSIFICATION_TYPE":"U","BSTAR":"0.01361900000000","ECCENTRICITY":"0.00014850","MEAN_MOTION_DDOT":"0.0000000000000","MEAN_MOTION":"15.40367143","EPOCH":"2021-08-28T20:19:46.221600","APOAPSIS":"446.040","EPHEMERIS_TYPE":"0","TIME_SYSTEM":"UTC","DECAY_DATE":null,"LAUNCH_DATE":"2020-02-17","ARG_OF_PERICENTER":"56.4631","NORAD_CAT_ID":"45220","MEAN_ANOMALY":"303.6515","TLE_LINE2":"2 45220  53.0523 229.0816 0001485  56.4631 303.6515 15.40367143 86049","RCS_SIZE":"LARGE","PERIOD":"93.484","FILE":"3104555","ELEMENT_SET_NO":"999","MEAN_MOTION_DOT":"0.00596633"},{"OBJECT_TYPE":"PAYLOAD","INCLINATION":"53.0539","SITE":"AFETR","TLE_LINE1":"1 45221U 20012AV  21240.89218651  .00001667  00000-0  13073-3 0  9995","PERIAPSIS":"546.210","MEAN_ELEMENT_THEORY":"SGP4","OBJECT_ID":"2020-012AV","REF_FRAME":"TEME","RA_OF_ASC_NODE":"230.8072","SEMIMAJOR_AXIS":"6925.317","COUNTRY_CODE":"US","OBJECT_NAME":"STARLINK-1189","REV_AT_EPOCH":"8613","CENTER_NAME":"EARTH","GP_ID":"183636367","CLASSIFICATION_TYPE":"U","ECCENTRICITY":"0.00014040","MEAN_MOTION_DDOT":"0.0000000000000","BSTAR":"0.00013073000000","DECAY_DATE":null,"APOAPSIS":"548.154","EPHEMERIS_TYPE":"0","TIME_SYSTEM":"UTC","EPOCH":"2021-08-28T21:24:44.914464","MEAN_MOTION":"15.06410288","ARG_OF_PERICENTER":"62.0081","LAUNCH_DATE":"2020-02-17","NORAD_CAT_ID":"45221","MEAN_ANOMALY":"298.1050","TLE_LINE2":"2 45221  53.0539 230.8072 0001404  62.0081 298.1050 15.06410288 86137","FILE":"3104555","PERIOD":"95.591","RCS_SIZE":"LARGE","MEAN_MOTION_DOT":"0.00001667","ELEMENT_SET_NO":"999"},{"NORAD_CAT_ID":"45222","LAUNCH_DATE":"2020-02-17","ARG_OF_PERICENTER":"26.8632","EPOCH":"2021-08-28T16:48:44.102880","MEAN_MOTION":"15.06399976","DECAY_DATE":null,"EPHEMERIS_TYPE":"0","APOAPSIS":"548.047","TIME_SYSTEM":"UTC","BSTAR":"0.00002088800000","ECCENTRICITY":"0.00012030","MEAN_MOTION_DDOT":"0.0000000000000","ELEMENT_SET_NO":"999","MEAN_MOTION_DOT":"0.00000030","RCS_SIZE":"LARGE","PERIOD":"95.592","FILE":"3104555","TLE_LINE2":"2 45222  53.0542 231.6712 0001203  26.8632 333.2419 15.06399976 86106","MEAN_ANOMALY":"333.2419","REF_FRAME":"TEME","OBJECT_ID":"2020-012AW","MEAN_ELEMENT_THEORY":"SGP4","TLE_LINE1":"1 45222U 20012AW  21240.70051045  .00000030  00000-0  20888-4 0  9994","SITE":"AFETR","PERIAPSIS":"546.381","INCLINATION":"53.0542","OBJECT_TYPE":"PAYLOAD","GP_ID":"183637115","CLASSIFICATION_TYPE":"U","OBJECT_NAME":"STARLINK-1191","REV_AT_EPOCH":"8610","CENTER_NAME":"EARTH","SEMIMAJOR_AXIS":"6925.349","COUNTRY_CODE":"US","RA_OF_ASC_NODE":"231.6712"},{"LAUNCH_DATE":"2020-02-17","ARG_OF_PERICENTER":"54.6234","NORAD_CAT_ID":"45223","BSTAR":"-0.00003308500000","MEAN_MOTION_DDOT":"0.0000000000000","ECCENTRICITY":"0.00006990","EPOCH":"2021-08-28T07:47:20.387328","MEAN_MOTION":"15.06397118","DECAY_DATE":null,"EPHEMERIS_TYPE":"0","APOAPSIS":"547.706","TIME_SYSTEM":"UTC","PERIOD":"95.592","RCS_SIZE":"LARGE","FILE":"3104340","ELEMENT_SET_NO":"999","MEAN_MOTION_DOT":"-0.00000774","MEAN_ANOMALY":"305.4820","TLE_LINE2":"2 45223  53.0534 233.3662 0000699  54.6234 305.4820 15.06397118 86053","OBJECT_ID":"2020-012AX","MEAN_ELEMENT_THEORY":"SGP4","REF_FRAME":"TEME","OBJECT_TYPE":"PAYLOAD","SITE":"AFETR","TLE_LINE1":"1 45223U 20012AX  21240.32454152 -.00000774  00000-0 -33085-4 0  9999","PERIAPSIS":"546.738","INCLINATION":"53.0534","REV_AT_EPOCH":"8605","OBJECT_NAME":"STARLINK-1212","CENTER_NAME":"EARTH","CLASSIFICATION_TYPE":"U","GP_ID":"183608765","RA_OF_ASC_NODE":"233.3662","SEMIMAJOR_AXIS":"6925.357","COUNTRY_CODE":"US"},{"MEAN_MOTION_DOT":"0.00066486","ELEMENT_SET_NO":"999","FILE":"3104340","RCS_SIZE":"LARGE","PERIOD":"91.834","TLE_LINE2":"2 45224  53.0511 195.6494 0008242 284.8163  75.1939 15.68045432 86466","MEAN_ANOMALY":"75.1939","NORAD_CAT_ID":"45224","ARG_OF_PERICENTER":"284.8163","LAUNCH_DATE":"2020-02-17","EPHEMERIS_TYPE":"0","APOAPSIS":"370.054","TIME_SYSTEM":"UTC","DECAY_DATE":null,"MEAN_MOTION":"15.68045432","EPOCH":"2021-08-28T08:33:00.013824","MEAN_MOTION_DDOT":"0.0000000000000","ECCENTRICITY":"0.00082420","BSTAR":"0.00058708000000","GP_ID":"183607515","CLASSIFICATION_TYPE":"U","REV_AT_EPOCH":"8646","CENTER_NAME":"EARTH","OBJECT_NAME":"STARLINK-1214","SEMIMAJOR_AXIS":"6742.631","COUNTRY_CODE":"US","RA_OF_ASC_NODE":"195.6494","REF_FRAME":"TEME","MEAN_ELEMENT_THEORY":"SGP4","OBJECT_ID":"2020-012AY","INCLINATION":"53.0511","PERIAPSIS":"358.939","SITE":"AFETR","TLE_LINE1":"1 45224U 20012AY  21240.35625016  .00066486  00000-0  58708-3 0  9990","OBJECT_TYPE":"PAYLOAD"},{"CLASSIFICATION_TYPE":"U","GP_ID":"183635868","REV_AT_EPOCH":"8605","OBJECT_NAME":"STARLINK-1215","CENTER_NAME":"EARTH","SEMIMAJOR_AXIS":"6925.353","COUNTRY_CODE":"US","RA_OF_ASC_NODE":"231.7780","REF_FRAME":"TEME","OBJECT_ID":"2020-012AZ","MEAN_ELEMENT_THEORY":"SGP4","PERIAPSIS":"546.668","SITE":"AFETR","TLE_LINE1":"1 45225U 20012AZ  21240.67473079  .00001081  00000-0  91437-4 0  9993","INCLINATION":"53.0531","OBJECT_TYPE":"PAYLOAD","ELEMENT_SET_NO":"999","MEAN_MOTION_DOT":"0.00001081","PERIOD":"95.592","RCS_SIZE":"LARGE","FILE":"3104555","TLE_LINE2":"2 45225  53.0531 231.7780 0000795  30.9938 329.1098 15.06398474 86056","MEAN_ANOMALY":"329.1098","NORAD_CAT_ID":"45225","LAUNCH_DATE":"2020-02-17","ARG_OF_PERICENTER":"30.9938","MEAN_MOTION":"15.06398474","EPOCH":"2021-08-28T16:11:36.740256","EPHEMERIS_TYPE":"0","APOAPSIS":"547.769","TIME_SYSTEM":"UTC","DECAY_DATE":null,"BSTAR":"0.00009143700000","MEAN_MOTION_DDOT":"0.0000000000000","ECCENTRICITY":"0.00007950"},{"RA_OF_ASC_NODE":"230.8541","COUNTRY_CODE":"US","SEMIMAJOR_AXIS":"6925.344","REV_AT_EPOCH":"8604","OBJECT_NAME":"STARLINK-1217","CENTER_NAME":"EARTH","GP_ID":"183636616","CLASSIFICATION_TYPE":"U","OBJECT_TYPE":"PAYLOAD","TLE_LINE1":"1 45226U 20012BA  21240.88113028  .00004198  00000-0  30054-3 0  9991","SITE":"AFETR","PERIAPSIS":"546.399","INCLINATION":"53.0526","OBJECT_ID":"2020-012BA","MEAN_ELEMENT_THEORY":"SGP4","REF_FRAME":"TEME","MEAN_ANOMALY":"325.4736","TLE_LINE2":"2 45226  53.0526 230.8541 0001170  34.6329 325.4736 15.06401554 86040","RCS_SIZE":"LARGE","PERIOD":"95.592","FILE":"3104555","ELEMENT_SET_NO":"999","MEAN_MOTION_DOT":"0.00004198","BSTAR":"0.00030054000000","MEAN_MOTION_DDOT":"0.0000000000000","ECCENTRICITY":"0.00011700","EPOCH":"2021-08-28T21:08:49.656192","MEAN_MOTION":"15.06401554","DECAY_DATE":null,"TIME_SYSTEM":"UTC","APOAPSIS":"548.019","EPHEMERIS_TYPE":"0","LAUNCH_DATE":"2020-02-17","ARG_OF_PERICENTER":"34.6329","NORAD_CAT_ID":"45226"}];
